HAWK-11B                
1 62379U 24247C   26068.44730104  .00009093  00000+0  32842-3 0  9993
2 62379  45.0161 115.7610 0004690 333.0326  27.0314 15.28847070 67738
STARLINK-33909          
1 63804U 25092A   26068.32277394  .00037012  00000+0  13471-2 0  9998
2 63804  42.9960 175.0437 0001468 151.3355 208.7577 15.27595619 48550
